start=new Date('2022-12-07T00:00:00.000Z').valueOf();
sats=[{"LAUNCH_DATE":"2019-11-11","PERIAPSIS":"545.954","EPHEMERIS_TYPE":"0","GP_ID":"219662840","OBJECT_ID":"2019-074AK","MEAN_ELEMENT_THEORY":"SGP4","MEAN_MOTION_DDOT":"0.0000000000000","REF_FRAME":"TEME","NORAD_CAT_ID":"44746","OBJECT_NAME":"STARLINK-1041","ECCENTRICITY":"0.00018430","CLASSIFICATION_TYPE":"U","ARG_OF_PERICENTER":"65.3029","MEAN_MOTION":"15.06394576","EPOCH":"2022-12-06T13:23:55.432608","APOAPSIS":"548.507","RCS_SIZE":"LARGE","DECAY_DATE":null,"TIME_SYSTEM":"UTC","TLE_LINE2":"2 44746  53.0535 164.8468 0001843  65.3029 294.8151 15.06394576168962","OBJECT_TYPE":"PAYLOAD","INCLINATION":"53.0535","CENTER_NAME":"EARTH","COUNTRY_CODE":"US","MEAN_MOTION_DOT":"0.00001164","SEMIMAJOR_AXIS":"6925.365","MEAN_ANOMALY":"294.8151","REV_AT_EPOCH":"16896","SITE":"AFETR","RA_OF_ASC_NODE":"164.8468","TLE_LINE1":"1 44746U 19074AK  22340.55828047  .00001164  00000-0  97044-4 0  9996","BSTAR":"0.00009704400000","ELEMENT_SET_NO":"999","PERIOD":"95.592","FILE":"3683104"},{"APOAPSIS":"548.491","OBJECT_NAME":"STARLINK-1042","EPOCH":"2022-12-06T15:41:54.957120","ECCENTRICITY":"0.00018160","CLASSIFICATION_TYPE":"U","MEAN_MOTION":"15.06393522","ARG_OF_PERICENTER":"67.6463","MEAN_ELEMENT_THEORY":"SGP4","REF_FRAME":"TEME","MEAN_MOTION_DDOT":"0.0000000000000","NORAD_CAT_ID":"44747","PERIAPSIS":"545.976","EPHEMERIS_TYPE":"0","LAUNCH_DATE":"2019-11-11","GP_ID":"219694041","OBJECT_ID":"2019-074AL","RA_OF_ASC_NODE":"164.4063","REV_AT_EPOCH":"16898","SITE":"AFETR","PERIOD":"95.593","FILE":"3683274","TLE_LINE1":"1 44747U 19074AL  22340.65410830 -.00000837  00000-0 -37290-4 0  9990","ELEMENT_SET_NO":"999","BSTAR":"-0.00003729000000","MEAN_MOTION_DOT":"-0.00000837","MEAN_ANOMALY":"292.4718","SEMIMAJOR_AXIS":"6925.368","CENTER_NAME":"EARTH","INCLINATION":"53.0525","COUNTRY_CODE":"US","TIME_SYSTEM":"UTC","TLE_LINE2":"2 44747  53.0525 164.4063 0001816  67.6463 292.4718 15.06393522168981","DECAY_DATE":null,"RCS_SIZE":"LARGE","OBJECT_TYPE":"PAYLOAD"},{"RA_OF_ASC_NODE":"163.6865","SITE":"AFETR","REV_AT_EPOCH":"16900","FILE":"3683274","PERIOD":"95.593","BSTAR":"0.00007147400000","TLE_LINE1":"1 44748U 19074AM  22340.81629636  .00000783  00000-0  71474-4 0  9995","ELEMENT_SET_NO":"999","MEAN_MOTION_DOT":"0.00000783","MEAN_ANOMALY":"287.7225","SEMIMAJOR_AXIS":"6925.372","CENTER_NAME":"EARTH","INCLINATION":"53.0537","COUNTRY_CODE":"US","TLE_LINE2":"2 44748  53.0537 163.6865 0001892  72.3971 287.7225 15.06392423169000","TIME_SYSTEM":"UTC","RCS_SIZE":"LARGE","DECAY_DATE":null,"OBJECT_TYPE":"PAYLOAD","APOAPSIS":"548.547","OBJECT_NAME":"STARLINK-1043","EPOCH":"2022-12-06T19:35:28.005504","ARG_OF_PERICENTER":"72.3971","CLASSIFICATION_TYPE":"U","MEAN_MOTION":"15.06392423","ECCENTRICITY":"0.00018920","MEAN_MOTION_DDOT":"0.0000000000000","REF_FRAME":"TEME","MEAN_ELEMENT_THEORY":"SGP4","NORAD_CAT_ID":"44748","EPHEMERIS_TYPE":"0","PERIAPSIS":"545.927","LAUNCH_DATE":"2019-11-11","OBJECT_ID":"2019-074AM","GP_ID":"219692308"},{"CENTER_NAME":"EARTH","INCLINATION":"53.0538","COUNTRY_CODE":"US","TLE_LINE2":"2 44751  53.0538 164.8168 0001783  64.1125 296.0048 15.06391163168963","TIME_SYSTEM":"UTC","DECAY_DATE":null,"RCS_SIZE":"LARGE","OBJECT_TYPE":"PAYLOAD","RA_OF_ASC_NODE":"164.8168","SITE":"AFETR","REV_AT_EPOCH":"16896","FILE":"3683104","PERIOD":"95.593","ELEMENT_SET_NO":"999","TLE_LINE1":"1 44751U 19074AQ  22340.56564531  .00001040  00000-0  88704-4 0  9994","BSTAR":"0.00008870400000","MEAN_MOTION_DOT":"0.00001040","MEAN_ANOMALY":"296.0048","SEMIMAJOR_AXIS":"6925.376","MEAN_MOTION_DDOT":"0.0000000000000","REF_FRAME":"TEME","MEAN_ELEMENT_THEORY":"SGP4","NORAD_CAT_ID":"44751","EPHEMERIS_TYPE":"0","PERIAPSIS":"546.006","LAUNCH_DATE":"2019-11-11","OBJECT_ID":"2019-074AQ","GP_ID":"219663075","APOAPSIS":"548.475","OBJECT_NAME":"STARLINK-1046","EPOCH":"2022-12-06T13:34:31.754784","CLASSIFICATION_TYPE":"U","ARG_OF_PERICENTER":"64.1125","MEAN_MOTION":"15.06391163","ECCENTRICITY":"0.00017830"},{"RCS_SIZE":"LARGE","DECAY_DATE":null,"TIME_SYSTEM":"UTC","TLE_LINE2":"2 44752  53.0529 143.5270 0002004  68.7522 291.3681 15.06399576169283","OBJECT_TYPE":"PAYLOAD","INCLINATION":"53.0529","CENTER_NAME":"EARTH","COUNTRY_CODE":"US","MEAN_MOTION_DOT":"0.00001215","SEMIMAJOR_AXIS":"6925.350","MEAN_ANOMALY":"291.3681","REV_AT_EPOCH":"16928","SITE":"AFETR","RA_OF_ASC_NODE":"143.5270","BSTAR":"0.00010047000000","TLE_LINE1":"1 44752U 19074AR  22340.85130022  .00001215  00000-0  10047-3 0  9999","ELEMENT_SET_NO":"999","PERIOD":"95.592","FILE":"3683274","LAUNCH_DATE":"2019-11-11","PERIAPSIS":"545.827","EPHEMERIS_TYPE":"0","OBJECT_ID":"2019-074AR","GP_ID":"219693307","MEAN_ELEMENT_THEORY":"SGP4","REF_FRAME":"TEME","MEAN_MOTION_DDOT":"0.0000000000000","NORAD_CAT_ID":"44752","OBJECT_NAME":"STARLINK-1047","ECCENTRICITY":"0.00020040","CLASSIFICATION_TYPE":"U","ARG_OF_PERICENTER":"68.7522","MEAN_MOTION":"15.06399576","EPOCH":"2022-12-06T20:25:52.339008","APOAPSIS":"548.603"},{"TLE_LINE2":"2 44753  53.0549 124.3995 0001532  68.6464 291.4689 15.06401533169530","TIME_SYSTEM":"UTC","DECAY_DATE":null,"RCS_SIZE":"LARGE","OBJECT_TYPE":"PAYLOAD","CENTER_NAME":"EARTH","INCLINATION":"53.0549","COUNTRY_CODE":"US","MEAN_MOTION_DOT":"-0.00001037","MEAN_ANOMALY":"291.4689","SEMIMAJOR_AXIS":"6925.344","RA_OF_ASC_NODE":"124.3995","SITE":"AFETR","REV_AT_EPOCH":"16953","FILE":"3683274","PERIOD":"95.592","TLE_LINE1":"1 44753U 19074AS  22340.65778879 -.00001037  00000-0 -50738-4 0  9992","ELEMENT_SET_NO":"999","BSTAR":"-0.00005073800000","EPHEMERIS_TYPE":"0","PERIAPSIS":"546.148","LAUNCH_DATE":"2019-11-11","OBJECT_ID":"2019-074AS","GP_ID":"219693542","MEAN_MOTION_DDOT":"0.0000000000000","REF_FRAME":"TEME","MEAN_ELEMENT_THEORY":"SGP4","NORAD_CAT_ID":"44753","OBJECT_NAME":"STARLINK-1048","EPOCH":"2022-12-06T15:47:12.951456","MEAN_MOTION":"15.06401533","CLASSIFICATION_TYPE":"U","ARG_OF_PERICENTER":"68.6464","ECCENTRICITY":"0.00015320","APOAPSIS":"548.270"},{"MEAN_MOTION_DOT":"0.00000318","SEMIMAJOR_AXIS":"6925.354","MEAN_ANOMALY":"295.9386","SITE":"AFETR","REV_AT_EPOCH":"16954","RA_OF_ASC_NODE":"124.0837","TLE_LINE1":"1 44754U 19074AT  22340.72781887  .00000318  00000-0  40227-4 0  9995","BSTAR":"0.00004022700000","ELEMENT_SET_NO":"999","FILE":"3683274","PERIOD":"95.592","RCS_SIZE":"LARGE","DECAY_DATE":null,"TLE_LINE2":"2 44754  53.0545 124.0837 0001776  64.1786 295.9386 15.06398285169540","TIME_SYSTEM":"UTC","OBJECT_TYPE":"PAYLOAD","INCLINATION":"53.0545","CENTER_NAME":"EARTH","COUNTRY_CODE":"US","OBJECT_NAME":"STARLINK-1049","CLASSIFICATION_TYPE":"U","ARG_OF_PERICENTER":"64.1786","MEAN_MOTION":"15.06398285","ECCENTRICITY":"0.00017760","EPOCH":"2022-12-06T17:28:03.550368","APOAPSIS":"548.449","LAUNCH_DATE":"2019-11-11","EPHEMERIS_TYPE":"0","PERIAPSIS":"545.989","GP_ID":"219692808","OBJECT_ID":"2019-074AT","REF_FRAME":"TEME","MEAN_MOTION_DDOT":"0.0000000000000","MEAN_ELEMENT_THEORY":"SGP4","NORAD_CAT_ID":"44754"},{"PERIOD":"95.593","FILE":"3683212","ELEMENT_SET_NO":"999","TLE_LINE1":"1 44757U 19074AW  22340.86236427 -.00000340  00000-0 -39552-5 0  9995","BSTAR":"-0.00000395520000","RA_OF_ASC_NODE":"143.4811","REV_AT_EPOCH":"16945","SITE":"AFETR","MEAN_ANOMALY":"275.8317","SEMIMAJOR_AXIS":"6925.379","MEAN_MOTION_DOT":"-0.00000340","COUNTRY_CODE":"US","CENTER_NAME":"EARTH","INCLINATION":"53.0539","OBJECT_TYPE":"PAYLOAD","TIME_SYSTEM":"UTC","TLE_LINE2":"2 44757  53.0539 143.4811 0001547  84.2848 275.8317 15.06390226169459","RCS_SIZE":"LARGE","DECAY_DATE":null,"APOAPSIS":"548.315","EPOCH":"2022-12-06T20:41:48.272928","ECCENTRICITY":"0.00015470","ARG_OF_PERICENTER":"84.2848","CLASSIFICATION_TYPE":"U","MEAN_MOTION":"15.06390226","OBJECT_NAME":"STARLINK-1052","NORAD_CAT_ID":"44757","MEAN_ELEMENT_THEORY":"SGP4","MEAN_MOTION_DDOT":"0.0000000000000","REF_FRAME":"TEME","GP_ID":"219672348","OBJECT_ID":"2019-074AW","PERIAPSIS":"546.172","EPHEMERIS_TYPE":"0","LAUNCH_DATE":"2019-11-11"},{"OBJECT_NAME":"STARLINK-1053","EPOCH":"2022-12-06T21:05:42.640800","CLASSIFICATION_TYPE":"U","ARG_OF_PERICENTER":"88.8406","MEAN_MOTION":"15.06384587","ECCENTRICITY":"0.00013840","APOAPSIS":"548.219","EPHEMERIS_TYPE":"0","PERIAPSIS":"546.302","LAUNCH_DATE":"2019-11-11","OBJECT_ID":"2019-074AX","GP_ID":"219693807","REF_FRAME":"TEME","MEAN_MOTION_DDOT":"0.0000000000000","MEAN_ELEMENT_THEORY":"SGP4","NORAD_CAT_ID":"44758","MEAN_MOTION_DOT":"-0.00000507","MEAN_ANOMALY":"271.2741","SEMIMAJOR_AXIS":"6925.396","RA_OF_ASC_NODE":"163.4837","SITE":"AFETR","REV_AT_EPOCH":"16901","FILE":"3683274","PERIOD":"95.593","BSTAR":"-0.00001514500000","TLE_LINE1":"1 44758U 19074AX  22340.87896575 -.00000507  00000-0 -15145-4 0  9999","ELEMENT_SET_NO":"999","TLE_LINE2":"2 44758  53.0540 163.4837 0001384  88.8406 271.2741 15.06384587169017","TIME_SYSTEM":"UTC","RCS_SIZE":"LARGE","DECAY_DATE":null,"OBJECT_TYPE":"PAYLOAD","CENTER_NAME":"EARTH","INCLINATION":"53.0540","COUNTRY_CODE":"US"},{"PERIAPSIS":"546.078","EPHEMERIS_TYPE":"0","LAUNCH_DATE":"2019-11-11","GP_ID":"219694042","OBJECT_ID":"2019-074AY","MEAN_ELEMENT_THEORY":"SGP4","MEAN_MOTION_DDOT":"0.0000000000000","REF_FRAME":"TEME","NORAD_CAT_ID":"44759","OBJECT_NAME":"STARLINK-1054","EPOCH":"2022-12-06T15:52:31.960128","ECCENTRICITY":"0.00016390","MEAN_MOTION":"15.06400225","CLASSIFICATION_TYPE":"U","ARG_OF_PERICENTER":"88.3400","APOAPSIS":"548.348","TIME_SYSTEM":"UTC","TLE_LINE2":"2 44759  53.0550 164.3805 0001639  88.3400 271.7776 15.06400225166621","DECAY_DATE":null,"RCS_SIZE":"LARGE","OBJECT_TYPE":"PAYLOAD","CENTER_NAME":"EARTH","INCLINATION":"53.0550","COUNTRY_CODE":"US","MEAN_MOTION_DOT":"0.00001083","MEAN_ANOMALY":"271.7776","SEMIMAJOR_AXIS":"6925.348","RA_OF_ASC_NODE":"164.3805","REV_AT_EPOCH":"16662","SITE":"AFETR","PERIOD":"95.592","FILE":"3683274","TLE_LINE1":"1 44759U 19074AY  22340.66148102  .00001083  00000-0  91618-4 0  9990","ELEMENT_SET_NO":"999","BSTAR":"0.00009161800000"}];
